start=new Date('2023-02-04T00:00:00.000Z').valueOf();
sats=[{"MEAN_MOTION":"15.08839048","MEAN_MOTION_DDOT":"0.0000000000000","PERIAPSIS":"538.599","CENTER_NAME":"EARTH","EPOCH":"2023-02-03T18:30:40.733856","GP_ID":"224347909","SITE":"AFETR","MEAN_ELEMENT_THEORY":"SGP4","COUNTRY_CODE":"US","REV_AT_EPOCH":"6509","LAUNCH_DATE":"2021-12-02","ARG_OF_PERICENTER":"93.1371","OBJECT_TYPE":"PAYLOAD","OBJECT_ID":"2021-115AL","INCLINATION":"53.2144","BSTAR":"0.00003846900000","ECCENTRICITY":"0.00016610","NORAD_CAT_ID":"49758","TIME_SYSTEM":"UTC","DECAY_DATE":null,"CLASSIFICATION_TYPE":"U","MEAN_ANOMALY":"266.9811","ELEMENT_SET_NO":"999","FILE":"3770748","TLE_LINE2":"2 49758  53.2144 171.5290 0001661  93.1371 266.9811 15.08839048 65096","SEMIMAJOR_AXIS":"6917.883","RCS_SIZE":"LARGE","MEAN_MOTION_DOT":"0.00000324","PERIOD":"95.438","RA_OF_ASC_NODE":"171.5290","EPHEMERIS_TYPE":"0","TLE_LINE1":"1 49758U 21115AL  23034.77130479  .00000324  00000-0  38469-4 0  9996","REF_FRAME":"TEME","APOAPSIS":"540.897","OBJECT_NAME":"STARLINK-3194"},{"REV_AT_EPOCH":"6616","ARG_OF_PERICENTER":"90.2662","LAUNCH_DATE":"2021-12-02","OBJECT_ID":"2021-115AM","OBJECT_TYPE":"PAYLOAD","INCLINATION":"53.2149","BSTAR":"0.00008980400000","ECCENTRICITY":"0.00012380","NORAD_CAT_ID":"49759","TIME_SYSTEM":"UTC","MEAN_MOTION":"15.08841047","MEAN_MOTION_DDOT":"0.0000000000000","PERIAPSIS":"538.886","CENTER_NAME":"EARTH","EPOCH":"2023-02-03T11:53:14.297568","SITE":"AFETR","GP_ID":"224323543","MEAN_ELEMENT_THEORY":"SGP4","COUNTRY_CODE":"US","PERIOD":"95.437","RA_OF_ASC_NODE":"172.7596","EPHEMERIS_TYPE":"0","TLE_LINE1":"1 49759U 21115AM  23034.49530437  .00001142  00000-0  89804-4 0  9992","REF_FRAME":"TEME","OBJECT_NAME":"STARLINK-3204","APOAPSIS":"540.599","DECAY_DATE":null,"CLASSIFICATION_TYPE":"U","MEAN_ANOMALY":"269.8471","ELEMENT_SET_NO":"999","FILE":"3770695","TLE_LINE2":"2 49759  53.2149 172.7596 0001238  90.2662 269.8471 15.08841047 66160","SEMIMAJOR_AXIS":"6917.877","RCS_SIZE":"LARGE","MEAN_MOTION_DOT":"0.00001142"},{"ARG_OF_PERICENTER":"76.8229","LAUNCH_DATE":"2021-12-02","REV_AT_EPOCH":"6510","INCLINATION":"53.2139","BSTAR":"0.00003507500000","OBJECT_ID":"2021-115AN","OBJECT_TYPE":"PAYLOAD","ECCENTRICITY":"0.00016560","TIME_SYSTEM":"UTC","NORAD_CAT_ID":"49760","MEAN_MOTION_DDOT":"0.0000000000000","MEAN_MOTION":"15.08839280","PERIAPSIS":"538.602","CENTER_NAME":"EARTH","EPOCH":"2023-02-03T18:41:16.695744","SITE":"AFETR","GP_ID":"224348410","MEAN_ELEMENT_THEORY":"SGP4","COUNTRY_CODE":"US","PERIOD":"95.438","RA_OF_ASC_NODE":"171.4963","REF_FRAME":"TEME","EPHEMERIS_TYPE":"0","TLE_LINE1":"1 49760U 21115AN  23034.77866546  .00000270  00000-0  35075-4 0  9990","OBJECT_NAME":"STARLINK-3199","APOAPSIS":"540.893","DECAY_DATE":null,"MEAN_ANOMALY":"283.2948","CLASSIFICATION_TYPE":"U","ELEMENT_SET_NO":"999","FILE":"3770748","RCS_SIZE":"LARGE","MEAN_MOTION_DOT":"0.00000270","TLE_LINE2":"2 49760  53.2139 171.4963 0001656  76.8229 283.2948 15.08839280 65106","SEMIMAJOR_AXIS":"6917.883"},{"ELEMENT_SET_NO":"999","FILE":"3770748","TLE_LINE2":"2 49761  53.2140 171.5374 0001336  77.4990 282.6152 15.08833947 65095","SEMIMAJOR_AXIS":"6917.899","RCS_SIZE":"LARGE","MEAN_MOTION_DOT":"0.00000249","DECAY_DATE":null,"CLASSIFICATION_TYPE":"U","MEAN_ANOMALY":"282.6152","EPHEMERIS_TYPE":"0","TLE_LINE1":"1 49761U 21115AP  23034.76762916  .00000249  00000-0  33759-4 0  9999","REF_FRAME":"TEME","OBJECT_NAME":"STARLINK-3203","APOAPSIS":"540.688","PERIOD":"95.438","RA_OF_ASC_NODE":"171.5374","EPOCH":"2023-02-03T18:25:23.159424","GP_ID":"224347159","SITE":"AFETR","MEAN_ELEMENT_THEORY":"SGP4","COUNTRY_CODE":"US","MEAN_MOTION":"15.08833947","MEAN_MOTION_DDOT":"0.0000000000000","PERIAPSIS":"538.840","CENTER_NAME":"EARTH","ECCENTRICITY":"0.00013360","NORAD_CAT_ID":"49761","TIME_SYSTEM":"UTC","REV_AT_EPOCH":"6509","ARG_OF_PERICENTER":"77.4990","LAUNCH_DATE":"2021-12-02","OBJECT_TYPE":"PAYLOAD","OBJECT_ID":"2021-115AP","INCLINATION":"53.2140","BSTAR":"0.00003375900000"},{"TIME_SYSTEM":"UTC","NORAD_CAT_ID":"49762","ECCENTRICITY":"0.00010510","INCLINATION":"53.2156","BSTAR":"-0.00000763640000","OBJECT_TYPE":"PAYLOAD","OBJECT_ID":"2021-115AQ","ARG_OF_PERICENTER":"89.6490","LAUNCH_DATE":"2021-12-02","REV_AT_EPOCH":"6506","COUNTRY_CODE":"US","EPOCH":"2023-02-03T12:30:20.082528","GP_ID":"224312154","SITE":"AFETR","MEAN_ELEMENT_THEORY":"SGP4","PERIAPSIS":"539.039","CENTER_NAME":"EARTH","MEAN_MOTION_DDOT":"0.0000000000000","MEAN_MOTION":"15.08833073","OBJECT_NAME":"STARLINK-3195","APOAPSIS":"540.494","REF_FRAME":"TEME","EPHEMERIS_TYPE":"0","TLE_LINE1":"1 49762U 21115AQ  23034.52106577 -.00000409  00000-0 -76364-5 0  9999","RA_OF_ASC_NODE":"172.6444","PERIOD":"95.438","RCS_SIZE":"LARGE","MEAN_MOTION_DOT":"-0.00000409","TLE_LINE2":"2 49762  53.2156 172.6444 0001051  89.6490 270.4622 15.08833073 65061","SEMIMAJOR_AXIS":"6917.902","ELEMENT_SET_NO":"999","FILE":"3770323","MEAN_ANOMALY":"270.4622","CLASSIFICATION_TYPE":"U","DECAY_DATE":null},{"SEMIMAJOR_AXIS":"6917.896","TLE_LINE2":"2 49763  53.2151 173.0001 0001829  87.0716 273.0485 15.08834824 65057","MEAN_MOTION_DOT":"-0.00000950","RCS_SIZE":"LARGE","FILE":"3770323","ELEMENT_SET_NO":"999","CLASSIFICATION_TYPE":"U","MEAN_ANOMALY":"273.0485","DECAY_DATE":null,"OBJECT_NAME":"STARLINK-3198","APOAPSIS":"541.026","TLE_LINE1":"1 49763U 21115AR  23034.44378910 -.00000950  00000-0 -41592-4 0  9998","EPHEMERIS_TYPE":"0","REF_FRAME":"TEME","RA_OF_ASC_NODE":"173.0001","PERIOD":"95.438","COUNTRY_CODE":"US","SITE":"AFETR","GP_ID":"224313405","MEAN_ELEMENT_THEORY":"SGP4","EPOCH":"2023-02-03T10:39:03.378240","CENTER_NAME":"EARTH","PERIAPSIS":"538.496","MEAN_MOTION":"15.08834824","MEAN_MOTION_DDOT":"0.0000000000000","NORAD_CAT_ID":"49763","TIME_SYSTEM":"UTC","ECCENTRICITY":"0.00018290","OBJECT_ID":"2021-115AR","OBJECT_TYPE":"PAYLOAD","BSTAR":"-0.00004159200000","INCLINATION":"53.2151","REV_AT_EPOCH":"6505","LAUNCH_DATE":"2021-12-02","ARG_OF_PERICENTER":"87.0716"},{"INCLINATION":"53.2146","BSTAR":"-0.00003321200000","OBJECT_TYPE":"PAYLOAD","OBJECT_ID":"2021-115AS","ARG_OF_PERICENTER":"115.0462","LAUNCH_DATE":"2021-12-02","REV_AT_EPOCH":"6617","TIME_SYSTEM":"UTC","NORAD_CAT_ID":"49764","ECCENTRICITY":"0.00014410","PERIAPSIS":"538.772","CENTER_NAME":"EARTH","MEAN_MOTION_DDOT":"0.0000000000000","MEAN_MOTION":"15.08832438","COUNTRY_CODE":"US","EPOCH":"2023-02-03T11:05:32.899776","GP_ID":"224313656","SITE":"AFETR","MEAN_ELEMENT_THEORY":"SGP4","RA_OF_ASC_NODE":"172.9073","PERIOD":"95.438","APOAPSIS":"540.765","OBJECT_NAME":"STARLINK-3206","REF_FRAME":"TEME","EPHEMERIS_TYPE":"0","TLE_LINE1":"1 49764U 21115AS  23034.46218634 -.00000816  00000-0 -33212-4 0  9998","MEAN_ANOMALY":"245.0680","CLASSIFICATION_TYPE":"U","DECAY_DATE":null,"RCS_SIZE":"LARGE","MEAN_MOTION_DOT":"-0.00000816","TLE_LINE2":"2 49764  53.2146 172.9073 0001441 115.0462 245.0680 15.08832438 66178","SEMIMAJOR_AXIS":"6917.904","ELEMENT_SET_NO":"999","FILE":"3770323"},{"OBJECT_ID":"2021-115AT","OBJECT_TYPE":"PAYLOAD","INCLINATION":"53.2144","BSTAR":"-0.00000616910000","REV_AT_EPOCH":"6510","ARG_OF_PERICENTER":"82.5277","LAUNCH_DATE":"2021-12-02","NORAD_CAT_ID":"49765","TIME_SYSTEM":"UTC","ECCENTRICITY":"0.00014970","PERIAPSIS":"538.723","CENTER_NAME":"EARTH","MEAN_MOTION":"15.08835787","MEAN_MOTION_DDOT":"0.0000000000000","COUNTRY_CODE":"US","EPOCH":"2023-02-03T18:46:34.816224","GP_ID":"224347660","SITE":"AFETR","MEAN_ELEMENT_THEORY":"SGP4","RA_OF_ASC_NODE":"171.4696","PERIOD":"95.438","APOAPSIS":"540.794","OBJECT_NAME":"STARLINK-3227","EPHEMERIS_TYPE":"0","TLE_LINE1":"1 49765U 21115AT  23034.78234741 -.00000386  00000-0 -61691-5 0  9996","REF_FRAME":"TEME","CLASSIFICATION_TYPE":"U","MEAN_ANOMALY":"277.5885","DECAY_DATE":null,"TLE_LINE2":"2 49765  53.2144 171.4696 0001497  82.5277 277.5885 15.08835787 65104","SEMIMAJOR_AXIS":"6917.893","RCS_SIZE":"LARGE","MEAN_MOTION_DOT":"-0.00000386","ELEMENT_SET_NO":"999","FILE":"3770748"},{"DECAY_DATE":null,"CLASSIFICATION_TYPE":"U","MEAN_ANOMALY":"266.2148","FILE":"3770323","ELEMENT_SET_NO":"999","SEMIMAJOR_AXIS":"6917.893","TLE_LINE2":"2 49766  53.2155 172.5938 0001204  93.8982 266.2148 15.08835920 65063","MEAN_MOTION_DOT":"-0.00000631","RCS_SIZE":"LARGE","PERIOD":"95.438","RA_OF_ASC_NODE":"172.5938","TLE_LINE1":"1 49766U 21115AU  23034.53210557 -.00000631  00000-0 -21574-4 0  9997","EPHEMERIS_TYPE":"0","REF_FRAME":"TEME","OBJECT_NAME":"STARLINK-3190","APOAPSIS":"540.591","MEAN_MOTION":"15.08835920","MEAN_MOTION_DDOT":"0.0000000000000","CENTER_NAME":"EARTH","PERIAPSIS":"538.925","GP_ID":"224312654","SITE":"AFETR","MEAN_ELEMENT_THEORY":"SGP4","EPOCH":"2023-02-03T12:46:13.921248","COUNTRY_CODE":"US","REV_AT_EPOCH":"6506","LAUNCH_DATE":"2021-12-02","ARG_OF_PERICENTER":"93.8982","OBJECT_TYPE":"PAYLOAD","OBJECT_ID":"2021-115AU","BSTAR":"-0.00002157400000","INCLINATION":"53.2155","ECCENTRICITY":"0.00012040","NORAD_CAT_ID":"49766","TIME_SYSTEM":"UTC"},{"DECAY_DATE":null,"MEAN_ANOMALY":"280.1722","CLASSIFICATION_TYPE":"U","ELEMENT_SET_NO":"999","FILE":"3770748","RCS_SIZE":"LARGE","MEAN_MOTION_DOT":"-0.00001767","TLE_LINE2":"2 49767  53.2171 171.4392 0000639  79.9343 280.1722 15.08840541 65104","SEMIMAJOR_AXIS":"6917.879","PERIOD":"95.438","RA_OF_ASC_NODE":"171.4392","REF_FRAME":"TEME","EPHEMERIS_TYPE":"0","TLE_LINE1":"1 49767U 21115AV  23034.78970454 -.00001767  00000-0 -92961-4 0  9993","OBJECT_NAME":"STARLINK-3192","APOAPSIS":"540.186","MEAN_MOTION_DDOT":"0.0000000000000","MEAN_MOTION":"15.08840541","PERIAPSIS":"539.302","CENTER_NAME":"EARTH","EPOCH":"2023-02-03T18:57:10.472256","SITE":"AFETR","GP_ID":"224348161","MEAN_ELEMENT_THEORY":"SGP4","COUNTRY_CODE":"US","LAUNCH_DATE":"2021-12-02","ARG_OF_PERICENTER":"79.9343","REV_AT_EPOCH":"6510","INCLINATION":"53.2171","BSTAR":"-0.00009296100000","OBJECT_ID":"2021-115AV","OBJECT_TYPE":"PAYLOAD","ECCENTRICITY":"0.00006390","TIME_SYSTEM":"UTC","NORAD_CAT_ID":"49767"}];
